[{"id":"55797","name":"ONEWEB-0534","tle1":"1 55797U 23029B   26176.25987542  .00000009  00000+0 -10700-4 0  9994","tle2":"2 55797  87.9188 272.8603 0001938 101.8030 258.3321 13.20771951162210"},{"id":"55798","name":"ONEWEB-0556","tle1":"1 55798U 23029C   26176.26659288  .00000006  00000+0 -16764-4 0  9992","tle2":"2 55798  87.9184 272.8581 0001358  82.8656 277.2631 13.20774483162217"},{"id":"55799","name":"ONEWEB-0562","tle1":"1 55799U 23029D   26176.25314430 -.00000043  00000+0 -13840-3 0  9992","tle2":"2 55799  87.9185 272.8419 0001881  74.4781 285.6560 13.20771198162210"},{"id":"55800","name":"ONEWEB-0563","tle1":"1 55800U 23029E   26176.24809266 -.00000024  00000+0 -91893-4 0  9994","tle2":"2 55800  87.9186 272.8733 0001846 104.8977 255.2361 13.20772787162205"},{"id":"55801","name":"ONEWEB-0564","tle1":"1 55801U 23029F   26176.24136850 -.00000014  00000+0 -67492-4 0  9994","tle2":"2 55801  87.9187 272.8482 0001985  88.7658 271.3703 13.20771230162210"},{"id":"55802","name":"ONEWEB-0638","tle1":"1 55802U 23029G   26176.23320658  .00000177  00000+0  44337-3 0  9995","tle2":"2 55802  87.8963 288.1475 0001631  86.7396 273.3920 13.14504177160453"},{"id":"55803","name":"ONEWEB-0639","tle1":"1 55803U 23029H   26176.29593281 -.00004032  00000+0 -10105-1 0  9996","tle2":"2 55803  87.9176 303.3605 0001666 128.9420 231.1861 13.19745657159977"},{"id":"55804","name":"ONEWEB-0640","tle1":"1 55804U 23029J   26175.55765288 -.00000078  00000+0 -24554-3 0  9994","tle2":"2 55804  87.8962 288.2733 0001232  93.2250 266.9021 13.14503241160384"},{"id":"55805","name":"ONEWEB-0641","tle1":"1 55805U 23029K   26176.29120511 -.00000014  00000+0 -66718-4 0  9990","tle2":"2 55805  87.9185 303.3511 0001890 104.9889 255.1453 13.19725701159989"},{"id":"55806","name":"ONEWEB-0642","tle1":"1 55806U 23029L   26176.28647549 -.00000005  00000+0 -44285-4 0  9990","tle2":"2 55806  87.9172 303.3630 0001984 125.0378 235.0941 13.19725302159974"},{"id":"55807","name":"ONEWEB-0643","tle1":"1 55807U 23029M   26176.28870736  .00000127  00000+0  30920-3 0  9990","tle2":"2 55807  87.8965 288.1148 0002144 118.7879 241.3466 13.14504124160451"},{"id":"55808","name":"ONEWEB-0644","tle1":"1 55808U 23029N   26176.28173317  .00000001  00000+0 -28956-4 0  9991","tle2":"2 55808  87.9169 303.3651 0001951 110.8608 249.2734 13.19724749159978"},{"id":"55809","name":"ONEWEB-0645","tle1":"1 55809U 23029P   26175.62149329  .00000049  00000+0  90036-4 0  9994","tle2":"2 55809  87.9177 303.4943 0001503 108.6161 251.5135 13.19725031159881"},{"id":"55810","name":"ONEWEB-0646","tle1":"1 55810U 23029Q   26175.63887306 -.00000010  00000+0 -57797-4 0  9998","tle2":"2 55810  87.9178 303.4908 0001903 108.7707 251.3632 13.19725612159870"},{"id":"55811","name":"ONEWEB-0648","tle1":"1 55811U 23029R   26176.25698472 -.00000160  00000+0 -46736-3 0  9998","tle2":"2 55811  87.8972 288.0955 0001474 127.7697 232.3566 13.14501416160454"},{"id":"55812","name":"ONEWEB-0649","tle1":"1 55812U 23029S   26175.81576878  .00000100  00000+0  21669-3 0  9995","tle2":"2 55812  87.9173 303.4532 0001709 105.8639 254.2682 13.19726482159936"},{"id":"55813","name":"ONEWEB-0650","tle1":"1 55813U 23029T   26175.58359015  .00000077  00000+0  16113-3 0  9993","tle2":"2 55813  87.9176 303.5021 0001863 119.6649 240.4670 13.19729764159872"},{"id":"55814","name":"ONEWEB-0652","tle1":"1 55814U 23029U   26176.23795057  .00000061  00000+0  13135-3 0  9991","tle2":"2 55814  87.8970 288.1065 0002050  96.2873 263.8490 13.14500967160427"},{"id":"55815","name":"ONEWEB-0653","tle1":"1 55815U 23029V   26176.29820825  .00000270  00000+0  69298-3 0  9993","tle2":"2 55815  87.8971 288.0920 0001928  99.3050 260.8298 13.14503923160464"},{"id":"55816","name":"ONEWEB-0654","tle1":"1 55816U 23029W   26176.29344696  .00000188  00000+0  47231-3 0  9992","tle2":"2 55816  87.8968 288.0892 0002062  90.6793 269.4573 13.14504474160482"},{"id":"55817","name":"ONEWEB-0656","tle1":"1 55817U 23029X   26175.55280451  .00000000  00000+0 -32855-4 0  9990","tle2":"2 55817  87.9197 272.9622 0002223  89.2999 270.8389 13.20773547162122"},{"id":"55818","name":"ONEWEB-0657","tle1":"1 55818U 23029Y   26175.65466952  .00000005  00000+0 -19105-4 0  9992","tle2":"2 55818  87.9174 303.4865 0002596  97.8885 262.2543 13.19725691159891"},{"id":"55819","name":"ONEWEB-0658","tle1":"1 55819U 23029Z   26176.10483147  .00000066  00000+0  13137-3 0  9993","tle2":"2 55819  87.9187 303.3732 0001870 112.6060 247.5271 13.19724881159965"},{"id":"55820","name":"ONEWEB-0660","tle1":"1 55820U 23029AA  26175.58618924  .00000002  00000+0 -30287-4 0  9996","tle2":"2 55820  87.8977 288.2240 0001621 103.1307 257.0004 13.14504853160378"},{"id":"55821","name":"ONEWEB-0661","tle1":"1 55821U 23029AB  26176.23003505  .00000146  00000+0  35901-3 0  9998","tle2":"2 55821  87.8960 288.1392 0001637  98.3238 261.8077 13.14502957160447"},{"id":"55822","name":"ONEWEB-0662","tle1":"1 55822U 23029AC  26176.26491719 -.00000244  00000+0 -69254-3 0  9999","tle2":"2 55822  87.8955 288.1381 0001626 103.8837 256.2474 13.14503099160497"},{"id":"55823","name":"ONEWEB-0663","tle1":"1 55823U 23029AD  26176.26772792  .00000038  00000+0  60330-4 0  9999","tle2":"2 55823  87.9201 272.8913 0001700 111.1686 248.9630 13.20870365162215"},{"id":"55824","name":"ONEWEB-0664","tle1":"1 55824U 23029AE  26176.29692099  .00000158  00000+0  35692-3 0  9999","tle2":"2 55824  87.9185 272.8657 0001693  89.9757 270.1570 13.20771002162212"},{"id":"55825","name":"ONEWEB-0665","tle1":"1 55825U 23029AF  26176.22686131  .00000193  00000+0  48638-3 0  9996","tle2":"2 55825  87.8962 288.1209 0001670 106.1113 254.0201 13.14503667160461"},{"id":"55826","name":"ONEWEB-0666","tle1":"1 55826U 23029AG  26176.29018239  .00000036  00000+0  55885-4 0  9991","tle2":"2 55826  87.9187 272.8570 0002735  98.2961 261.8483 13.20771985162229"}]