OBJECT_NAME,OBJECT_ID,EPOCH,MEAN_MOTION,ECCENTRICITY,INCLINATION,RA_OF_ASC_NODE,ARG_OF_PERICENTER,MEAN_ANOMALY,EPHEMERIS_TYPE,CLASSIFICATION_TYPE,NORAD_CAT_ID,ELEMENT_SET_NO,REV_AT_EPOCH,BSTAR,MEAN_MOTION_DOT,MEAN_MOTION_DDOT
ONEWEB-0534,2023-029B,2026-06-25T06:14:13.236288,13.20771951,.00019386,87.9188,272.8603,101.8030,258.3321,0,U,55797,999,16221,-.10699577E-4,.9E-7,0
ONEWEB-0556,2023-029C,2026-06-25T06:23:53.624832,13.20774483,.00013587,87.9184,272.8581,82.8656,277.2631,0,U,55798,999,16221,-.16764301E-4,.6E-7,0
ONEWEB-0562,2023-029D,2026-06-25T06:04:31.667520,13.20771198,.00018817,87.9185,272.8419,74.4781,285.6560,0,U,55799,999,16221,-.13839955E-3,-.43E-6,0
ONEWEB-0563,2023-029E,2026-06-25T05:57:15.205824,13.20772787,.00018466,87.9186,272.8733,104.8977,255.2361,0,U,55800,999,16220,-.91892888E-4,-.24E-6,0
ONEWEB-0564,2023-029F,2026-06-25T05:47:34.238400,13.20771230,.00019854,87.9187,272.8482,88.7658,271.3703,0,U,55801,999,16221,-.67492192E-4,-.14E-6,0
ONEWEB-0638,2023-029G,2026-06-25T05:35:49.048512,13.14504177,.00016317,87.8963,288.1475,86.7396,273.3920,0,U,55802,999,16045,.44337398E-3,.177E-5,0
ONEWEB-0639,2023-029H,2026-06-25T07:06:08.594784,13.19745657,.00016662,87.9176,303.3605,128.9420,231.1861,0,U,55803,999,15997,-.10105276E-1,-.4032E-4,0
ONEWEB-0640,2023-029J,2026-06-24T13:23:01.208832,13.14503241,.00012327,87.8962,288.2733,93.2250,266.9021,0,U,55804,999,16038,-.24554081E-3,-.78E-6,0
ONEWEB-0641,2023-029K,2026-06-25T06:59:20.121504,13.19725701,.00018902,87.9185,303.3511,104.9889,255.1453,0,U,55805,999,15998,-.66717937E-4,-.14E-6,0
ONEWEB-0642,2023-029L,2026-06-25T06:52:31.482336,13.19725302,.00019844,87.9172,303.3630,125.0378,235.0941,0,U,55806,999,15997,-.44285176E-4,-.5E-7,0
ONEWEB-0643,2023-029M,2026-06-25T06:55:44.315904,13.14504124,.00021447,87.8965,288.1148,118.7879,241.3466,0,U,55807,999,16045,.3092008E-3,.127E-5,0
ONEWEB-0644,2023-029N,2026-06-25T06:45:41.745888,13.19724749,.00019518,87.9169,303.3651,110.8608,249.2734,0,U,55808,999,15997,-.28956375E-4,.1E-7,0
ONEWEB-0645,2023-029P,2026-06-24T14:54:57.020256,13.19725031,.0001503,87.9177,303.4943,108.6161,251.5135,0,U,55809,999,15988,.90036429E-4,.49E-6,0
ONEWEB-0646,2023-029Q,2026-06-24T15:19:58.632384,13.19725612,.00019032,87.9178,303.4908,108.7707,251.3632,0,U,55810,999,15987,-.57797377E-4,-.1E-6,0
ONEWEB-0648,2023-029R,2026-06-25T06:10:03.479808,13.14501416,.00014742,87.8972,288.0955,127.7697,232.3566,0,U,55811,999,16045,-.46735637E-3,-.16E-5,0
ONEWEB-0649,2023-029S,2026-06-24T19:34:42.422592,13.19726482,.00017099,87.9173,303.4532,105.8639,254.2682,0,U,55812,999,15993,.21669463E-3,.1E-5,0
ONEWEB-0650,2023-029T,2026-06-24T14:00:22.188960,13.19729764,.00018632,87.9176,303.5021,119.6649,240.4670,0,U,55813,999,15987,.16112616E-3,.77E-6,0
ONEWEB-0652,2023-029U,2026-06-25T05:42:38.929248,13.14500967,.000205,87.8970,288.1065,96.2873,263.8490,0,U,55814,999,16042,.13134949E-3,.61E-6,0
ONEWEB-0653,2023-029V,2026-06-25T07:09:25.192800,13.14503923,.00019286,87.8971,288.0920,99.3050,260.8298,0,U,55815,999,16046,.69297928E-3,.27E-5,0
ONEWEB-0654,2023-029W,2026-06-25T07:02:33.817344,13.14504474,.00020627,87.8968,288.0892,90.6793,269.4573,0,U,55816,999,16048,.47230973E-3,.188E-5,0
ONEWEB-0656,2023-029X,2026-06-24T13:16:02.309664,13.20773547,.0002223,87.9197,272.9622,89.2999,270.8389,0,U,55817,999,16212,-.32855063E-4,0,0
ONEWEB-0657,2023-029Y,2026-06-24T15:42:43.446528,13.19725691,.00025961,87.9174,303.4865,97.8885,262.2543,0,U,55818,999,15989,-.19105395E-4,.5E-7,0
ONEWEB-0658,2023-029Z,2026-06-25T02:30:57.439008,13.19724881,.00018708,87.9187,303.3732,112.6060,247.5271,0,U,55819,999,15996,.13136768E-3,.66E-6,0
ONEWEB-0660,2023-029AA,2026-06-24T14:04:06.750336,13.14504853,.00016212,87.8977,288.2240,103.1307,257.0004,0,U,55820,999,16037,-.30286836E-4,.2E-7,0
ONEWEB-0661,2023-029AB,2026-06-25T05:31:15.028320,13.14502957,.00016373,87.8960,288.1392,98.3238,261.8077,0,U,55821,999,16044,.35900901E-3,.146E-5,0
ONEWEB-0662,2023-029AC,2026-06-25T06:21:28.845216,13.14503099,.00016265,87.8955,288.1381,103.8837,256.2474,0,U,55822,999,16049,-.69254202E-3,-.244E-5,0
ONEWEB-0663,2023-029AD,2026-06-25T06:25:31.692288,13.20870365,.00017005,87.9201,272.8913,111.1686,248.9630,0,U,55823,999,16221,.60330154E-4,.38E-6,0
ONEWEB-0664,2023-029AE,2026-06-25T07:07:33.973536,13.20771002,.00016938,87.9185,272.8657,89.9757,270.1570,0,U,55824,999,16221,.35691635E-3,.158E-5,0
ONEWEB-0665,2023-029AF,2026-06-25T05:26:40.817184,13.14503667,.00016701,87.8962,288.1209,106.1113,254.0201,0,U,55825,999,16046,.48638166E-3,.193E-5,0
ONEWEB-0666,2023-029AG,2026-06-25T06:57:51.758496,13.20771985,.00027351,87.9187,272.8570,98.2961,261.8483,0,U,55826,999,16222,.55885334E-4,.36E-6,0
